[
    {
        "Altitude(m)": 703889.6943068784,
        "Argument of Periapsis(deg)": 0.007973084830638947,
        "Eccentricity": 0.0,
        "Inclination(deg)": 45.0,
        "Latitude(deg)": 27.618867334223896,
        "Longitude(deg)": -139.17362684729682,
        "Mean Anomaly(deg)": 40.800551653236596,
        "RAAN(deg)": 289.99247364097926,
        "Satellite Name": "Constellation 1 1278",
        "Satellite Number": 1278,
        "Semi-Major Axis(m)": 7083131.272910544,
        "Time(s)": 133
    },
    {
        "Altitude(m)": 703895.0693592587,
        "Argument of Periapsis(deg)": 0.008033032836884352,
        "Eccentricity": 0.0,
        "Inclination(deg)": 45.0,
        "Latitude(deg)": 27.655696517842035,
        "Longitude(deg)": -139.1231863962829,
        "Mean Anomaly(deg)": 40.86125279348648,
        "RAAN(deg)": 289.99241705181373,
        "Satellite Name": "Constellation 1 1278",
        "Satellite Number": 1278,
        "Semi-Major Axis(m)": 7083131.272910544,
        "Time(s)": 134
    },
    {
        "Altitude(m)": 703900.451272787,
        "Argument of Periapsis(deg)": 0.008092980843129758,
        "Eccentricity": 0.0,
        "Inclination(deg)": 45.0,
        "Latitude(deg)": 27.692504037621124,
        "Longitude(deg)": -139.072709405765,
        "Mean Anomaly(deg)": 40.92195393373636,
        "RAAN(deg)": 289.99236046264815,
        "Satellite Name": "Constellation 1 1278",
        "Satellite Number": 1278,
        "Semi-Major Axis(m)": 7083131.272910544,
        "Time(s)": 135
    },
    {
        "Altitude(m)": 703905.8400088369,
        "Argument of Periapsis(deg)": 0.008152928849375162,
        "Eccentricity": 0.0,
        "Inclination(deg)": 45.0,
        "Latitude(deg)": 27.729289845755037,
        "Longitude(deg)": -139.0221958156133,
        "Mean Anomaly(deg)": 40.9826550739863,
        "RAAN(deg)": 289.9923038734825,
        "Satellite Name": "Constellation 1 1278",
        "Satellite Number": 1278,
        "Semi-Major Axis(m)": 7083131.272910544,
        "Time(s)": 136
    },
    {
        "Altitude(m)": 703911.2355287587,
        "Argument of Periapsis(deg)": 0.008212876855620568,
        "Eccentricity": 0.0,
        "Inclination(deg)": 45.0,
        "Latitude(deg)": 27.76605389436831,
        "Longitude(deg)": -138.9716455657194,
        "Mean Anomaly(deg)": 41.04335621423619,
        "RAAN(deg)": 289.992247284317,
        "Satellite Name": "Constellation 1 1278",
        "Satellite Number": 1278,
        "Semi-Major Axis(m)": 7083131.272910544,
        "Time(s)": 137
    },
    {
        "Altitude(m)": 703916.6377938944,
        "Argument of Periapsis(deg)": 0.008272824861865974,
        "Eccentricity": 0.0,
        "Inclination(deg)": 45.0,
        "Latitude(deg)": 27.80279613551611,
        "Longitude(deg)": -138.92105859599738,
        "Mean Anomaly(deg)": 41.10405735448607,
        "RAAN(deg)": 289.9921906951514,
        "Satellite Name": "Constellation 1 1278",
        "Satellite Number": 1278,
        "Semi-Major Axis(m)": 7083131.272910544,
        "Time(s)": 138
    },
    {
        "Altitude(m)": 703922.0467655676,
        "Argument of Periapsis(deg)": 0.00833277286811138,
        "Eccentricity": 0.0,
        "Inclination(deg)": 45.0,
        "Latitude(deg)": 27.839516521184002,
        "Longitude(deg)": -138.87043484638366,
        "Mean Anomaly(deg)": 41.16475849473596,
        "RAAN(deg)": 289.9921341059859,
        "Satellite Name": "Constellation 1 1278",
        "Satellite Number": 1278,
        "Semi-Major Axis(m)": 7083131.272910544,
        "Time(s)": 139
    },
    {
        "Altitude(m)": 703927.4624050763,
        "Argument of Periapsis(deg)": 0.008392720874356788,
        "Eccentricity": 0.0,
        "Inclination(deg)": 45.0,
        "Latitude(deg)": 27.876215003288277,
        "Longitude(deg)": -138.81977425683772,
        "Mean Anomaly(deg)": 41.2254596349859,
        "RAAN(deg)": 289.9920775168203,
        "Satellite Name": "Constellation 1 1278",
        "Satellite Number": 1278,
        "Semi-Major Axis(m)": 7083131.272910544,
        "Time(s)": 140
    },
    {
        "Altitude(m)": 703932.884673715,
        "Argument of Periapsis(deg)": 0.008452668880602192,
        "Eccentricity": 0.0,
        "Inclination(deg)": 45.0,
        "Latitude(deg)": 27.91289153367548,
        "Longitude(deg)": -138.76907693543984,
        "Mean Anomaly(deg)": 41.286160775235736,
        "RAAN(deg)": 289.9920209276548,
        "Satellite Name": "Constellation 1 1278",
        "Satellite Number": 1278,
        "Semi-Major Axis(m)": 7083131.272910544,
        "Time(s)": 141
    },
    {
        "Altitude(m)": 703938.3135327563,
        "Argument of Periapsis(deg)": 0.008512616886847598,
        "Eccentricity": 0.0,
        "Inclination(deg)": 45.0,
        "Latitude(deg)": 27.94954606412203,
        "Longitude(deg)": -138.71834248600328,
        "Mean Anomaly(deg)": 41.34686191548562,
        "RAAN(deg)": 289.99196433848914,
        "Satellite Name": "Constellation 1 1278",
        "Satellite Number": 1278,
        "Semi-Major Axis(m)": 7083131.272910544,
        "Time(s)": 142
    },
    {
        "Altitude(m)": 703943.7489434555,
        "Argument of Periapsis(deg)": 0.008572564893093004,
        "Eccentricity": 0.0,
        "Inclination(deg)": 45.0,
        "Latitude(deg)": 27.986178546335108,
        "Longitude(deg)": -138.66757101665675,
        "Mean Anomaly(deg)": 41.40756305573556,
        "RAAN(deg)": 289.99190774932356,
        "Satellite Name": "Constellation 1 1278",
        "Satellite Number": 1278,
        "Semi-Major Axis(m)": 7083131.272910544,
        "Time(s)": 143
    },
    {
        "Altitude(m)": 703949.1908670501,
        "Argument of Periapsis(deg)": 0.008632512899338408,
        "Eccentricity": 0.0,
        "Inclination(deg)": 45.0,
        "Latitude(deg)": 28.02278893195196,
        "Longitude(deg)": -138.6167624674571,
        "Mean Anomaly(deg)": 41.46826419598545,
        "RAAN(deg)": 289.99185116015803,
        "Satellite Name": "Constellation 1 1278",
        "Satellite Number": 1278,
        "Semi-Major Axis(m)": 7083131.272910544,
        "Time(s)": 144
    },
    {
        "Altitude(m)": 703954.6392647724,
        "Argument of Periapsis(deg)": 0.008692460905583814,
        "Eccentricity": 0.0,
        "Inclination(deg)": 45.0,
        "Latitude(deg)": 28.059377172539836,
        "Longitude(deg)": -138.56591677848658,
        "Mean Anomaly(deg)": 41.52896533623533,
        "RAAN(deg)": 289.99179457099245,
        "Satellite Name": "Constellation 1 1278",
        "Satellite Number": 1278,
        "Semi-Major Axis(m)": 7083131.272910544,
        "Time(s)": 145
    },
    {
        "Altitude(m)": 703960.0940978241,
        "Argument of Periapsis(deg)": 0.00875240891182922,
        "Eccentricity": 0.0,
        "Inclination(deg)": 45.0,
        "Latitude(deg)": 28.095943219596073,
        "Longitude(deg)": -138.51503388985378,
        "Mean Anomaly(deg)": 41.58966647648527,
        "RAAN(deg)": 289.99173798182693,
        "Satellite Name": "Constellation 1 1278",
        "Satellite Number": 1278,
        "Semi-Major Axis(m)": 7083131.272910544,
        "Time(s)": 146
    },
    {
        "Altitude(m)": 703965.555327408,
        "Argument of Periapsis(deg)": 0.008812356918074627,
        "Eccentricity": 0.0,
        "Inclination(deg)": 45.0,
        "Latitude(deg)": 28.132487024547853,
        "Longitude(deg)": -138.46411374169367,
        "Mean Anomaly(deg)": 41.65036761673515,
        "RAAN(deg)": 289.9916813926613,
        "Satellite Name": "Constellation 1 1278",
        "Satellite Number": 1278,
        "Semi-Major Axis(m)": 7083131.272910544,
        "Time(s)": 147
    },
    {
        "Altitude(m)": 703971.0229146994,
        "Argument of Periapsis(deg)": 0.008872304924320031,
        "Eccentricity": 0.0,
        "Inclination(deg)": 45.0,
        "Latitude(deg)": 28.169008538752607,
        "Longitude(deg)": -138.413156442265,
        "Mean Anomaly(deg)": 41.71106875698504,
        "RAAN(deg)": 289.9916248034957,
        "Satellite Name": "Constellation 1 1278",
        "Satellite Number": 1278,
        "Semi-Major Axis(m)": 7083131.272910544,
        "Time(s)": 148
    },
    {
        "Altitude(m)": 703976.496820864,
        "Argument of Periapsis(deg)": 0.008932252930565437,
        "Eccentricity": 0.0,
        "Inclination(deg)": 45.0,
        "Latitude(deg)": 28.205507713496768,
        "Longitude(deg)": -138.36216159556378,
        "Mean Anomaly(deg)": 41.771769897234925,
        "RAAN(deg)": 289.9915682143302,
        "Satellite Name": "Constellation 1 1278",
        "Satellite Number": 1278,
        "Semi-Major Axis(m)": 7083131.272910544,
        "Time(s)": 149
    },
    {
        "Altitude(m)": 703981.977007055,
        "Argument of Periapsis(deg)": 0.008992200936810843,
        "Eccentricity": 0.0,
        "Inclination(deg)": 45.0,
        "Latitude(deg)": 28.241984499997287,
        "Longitude(deg)": -138.31112930990432,
        "Mean Anomaly(deg)": 41.832471037484865,
        "RAAN(deg)": 289.9915116251646,
        "Satellite Name": "Constellation 1 1278",
        "Satellite Number": 1278,
        "Semi-Major Axis(m)": 7083131.272910544,
        "Time(s)": 150
    },
    {
        "Altitude(m)": 703987.4634344038,
        "Argument of Periapsis(deg)": 0.009052148943056249,
        "Eccentricity": 0.0,
        "Inclination(deg)": 45.0,
        "Latitude(deg)": 28.27843884940055,
        "Longitude(deg)": -138.26005952553308,
        "Mean Anomaly(deg)": 41.893172177734755,
        "RAAN(deg)": 289.9914550359991,
        "Satellite Name": "Constellation 1 1278",
        "Satellite Number": 1278,
        "Semi-Major Axis(m)": 7083131.272910544,
        "Time(s)": 151
    }
]